#aV2021 12  1  0  0  0.00000000     288 DD+AD WGS84 FIT  NGA
## 2186 259200.00000000   300.00000000 59549 0.0000000000000
+   32     1  2  3  4  5  6  7  8  9 10 11 12 13 14 15 16 17
+         18 19 20 21 22 23 24 25 26 27 28 29 30 31 32  0  0
+          0  0  0  0  0  0  0  0  0  0  0  0  0  0  0  0  0
+          0  0  0  0  0  0  0  0  0  0  0  0  0  0  0  0  0
+          0  0  0  0  0  0  0  0  0  0  0  0  0  0  0  0  0
++         2  2  2  2  2  2  2  2  2  2  2  2  2  2  2  2  2
++         2  2  2  2  2  2  2  2  2  2  2  2  2  2  2  0  0
++         0  0  0  0  0  0  0  0  0  0  0  0  0  0  0  0  0
++         0  0  0  0  0  0  0  0  0  0  0  0  0  0  0  0  0
++         0  0  0  0  0  0  0  0  0  0  0  0  0  0  0  0  0
%c cc cc ccc ccc cccc cccc cccc cccc ccccc ccccc ccccc ccccc
%c cc cc ccc ccc cccc cccc cccc cccc ccccc ccccc ccccc ccccc
%f  0.0000000  0.000000000  0.00000000000  0.000000000000000
%f  0.0000000  0.000000000  0.00000000000  0.000000000000000
%i    0    0    0    0      0      0      0      0         0
%i    0    0    0    0      0      0      0      0         0
/*      NGA, ST. LOUIS,MO.                                  
/*   EPHEMERIS COMPUTED FROM 2 DAYS OF DATA                 
/*   EPOCHA v7 SMOOTHER                                     
/*   G2139 IERS2010 SATIGS SATAPC                           
*  2021 12  1 10 20  0.00000000
P  1   6136.753654  13844.769467 -22126.797366    495.923073                    
V  1 -26971.229694   4379.086059  -4471.784467     -0.103006                    
P  2  16324.430378 -15024.187757  15336.381721   -644.123712                    
V  2  18128.558583  -2781.859571 -22935.343018     -0.014113                    
P  3  11518.181682  22602.725735  -8146.888155    -28.236943                    
V  3  -8178.280059  -6418.366874 -29653.033429     -0.109993                    
P  4   2016.281794  22047.285474  14618.398437   -200.416556                    
V  4  -9039.312833  16389.741935 -23544.546003      0.011095                    
P  5   1178.904693 -18470.273593  18828.173835    -62.913425                    
V  5  17394.635016  17057.828383  15656.427233     -0.012832                    
P  6  25897.702300  -5700.934012   2065.927431    131.399048                    
V  6   2816.718821   1515.119043 -32120.866988      0.096549                    
P  7  21221.897154   7324.444841  14938.756080    285.354111                    
V  7 -17615.206258   4746.681209  22796.042434      0.049119                    
P  8  -5592.417412  25398.571555  -4451.428703    -46.345840                    
V  8  -4609.812779   4414.902179  31394.326045     -0.015375                    
P  9  11013.757853  12639.968566  20518.965246   -361.144995                    
V  9  -9600.851268  24458.100774  -9905.772220      0.005231                    
P 10 -19975.734173  -6611.268404 -16257.657839   -258.492012                    
V 10 -12117.646009 -16900.137531  21305.972319     -0.087325                    
P 11  19172.094859 -11941.900538  13957.114028     16.270940                    
V 11  17866.655433    176.598728 -24395.680445     -0.025597                    
P 12  -8449.522380 -23359.327573  -9844.300924   -134.315312                    
V 12   8699.054559   8623.477595 -28540.721781     -0.055672                    
P 13  13113.222151 -22961.260816   1176.849210    222.796986                    
V 13   1621.133078   2769.269265  31968.171505      0.057371                    
P 14  19837.378350   7114.912492 -16200.573950    -47.844627                    
V 14  10903.950517  17543.457128  21000.477600     -0.064933                    
P 15   2060.237830 -25845.941652  -5286.399235   -102.435057                    
V 15   5275.067475  -5237.493750  30269.364345      0.028247                    
P 16  -5794.148450  15846.015084  20135.150569   -433.267153                    
V 16 -15867.858897 -20929.741783  12207.540228     -0.062212                    
P 17  15982.383790  -1836.044534 -20700.855982    541.373900                    
V 17 -10331.156423  25217.949603  -9976.891595      0.052326                    
P 18 -21665.864500  -6473.576704  14008.895513    286.911586                    
V 18  17268.622233  -4465.925581  24536.830312     -0.062488                    
P 19  17827.958022 -10051.803118 -17095.290353     86.421398                    
V 19  -8149.540498  19654.963880 -20534.910060      0.050000                    
P 20  10429.614058 -11650.746521  21451.522082    517.850573                    
V 20  20361.499950  18269.054364   -238.346297     -0.001828                    
P 21  -3527.056802  15629.569870 -20389.653525    152.559933                    
V 21 -27067.407237   5548.904341   9216.849132      0.010500                    
P 22   6022.602008  21132.183846 -14894.752135   -451.840977                    
V 22 -15463.520827 -11631.898026 -22288.235470      0.090309                    
P 23 -20261.516550 -15755.329985  -7029.229133     26.753567                    
V 23  -4025.258049  -8271.026513  30136.966741     -0.042639                    
P 24  -1918.633433 -15863.292249 -21475.568552    271.868530                    
V 24  26062.355763  -6006.641324   2550.815680      0.028713                    
P 25 -17107.828704 -20516.789599    -74.060773    249.035112                    
V 25   1878.340151  -1870.626141 -31531.992850      0.058338                    
P 26 -16012.909146   4831.527053  20621.636697    160.723598                    
V 26 -17221.159608 -19965.712924  -8368.161769      0.037232                    
P 27 -12301.508818  22625.121005   5427.156869   -225.782563                    
V 27     -9.963512  -7672.493880  31286.401937     -0.045322                    
P 28  16741.895981    213.590199 -20027.412030    451.990363                    
V 28  14092.127047  22673.594997  11922.632257     -0.076529                    
P 29  -6545.916583 -16830.257927  19411.804347   -448.060577                    
V 29  11240.800725 -22022.962349 -15331.471471     -0.051217                    
P 30  26087.971302    340.054532   5677.105004   -495.839962                    
V 30  -6545.585698   4258.190070  29946.884942     -0.030341                    
P 31 -25621.204549   6676.022995   4137.300149   -152.876041                    
V 31  -5638.468435  -1752.686061 -30760.113258     -0.018746                    
P 32 -16811.857865   6317.742933 -19391.501397    -29.083849                    
V 32   7155.140869 -23936.990382 -14098.661398     -0.051052                    
EOF
